[{"OBJECT_NAME":"HULIANWANG DIGUI-17","OBJECT_ID":"2025-030G","EPOCH":"2026-03-05T01:28:48.239616","MEAN_MOTION":13.29338208,"ECCENTRICITY":7.54e-5,"INCLINATION":50.0047,"RA_OF_ASC_NODE":249.0252,"ARG_OF_PERICENTER":156.9999,"MEAN_ANOMALY":203.0907,"EPHEMERIS_TYPE":0,"CLASSIFICATION_TYPE":"U","NORAD_CAT_ID":62977,"ELEMENT_SET_NO":999,"REV_AT_EPOCH":5201,"BSTAR":6.9811e-5,"MEAN_MOTION_DOT":-9.2e-7,"MEAN_MOTION_DDOT":0},{"OBJECT_NAME":"HULIANWANG DIGUI-18","OBJECT_ID":"2025-030H","EPOCH":"2026-03-05T03:05:00.239136","MEAN_MOTION":13.29338238,"ECCENTRICITY":7.81e-5,"INCLINATION":50.0051,"RA_OF_ASC_NODE":248.7221,"ARG_OF_PERICENTER":158.745,"MEAN_ANOMALY":201.3455,"EPHEMERIS_TYPE":0,"CLASSIFICATION_TYPE":"U","NORAD_CAT_ID":62978,"ELEMENT_SET_NO":999,"REV_AT_EPOCH":5202,"BSTAR":6.7333e-5,"MEAN_MOTION_DOT":-9.3e-7,"MEAN_MOTION_DDOT":0},{"OBJECT_NAME":"HULIANWANG DIGUI-19","OBJECT_ID":"2025-030J","EPOCH":"2026-03-05T03:52:49.683360","MEAN_MOTION":13.29341421,"ECCENTRICITY":8.11e-5,"INCLINATION":50.0036,"RA_OF_ASC_NODE":248.851,"ARG_OF_PERICENTER":153.459,"MEAN_ANOMALY":206.6323,"EPHEMERIS_TYPE":0,"CLASSIFICATION_TYPE":"U","NORAD_CAT_ID":62979,"ELEMENT_SET_NO":999,"REV_AT_EPOCH":5202,"BSTAR":8.246e-5,"MEAN_MOTION_DOT":-8.6e-7,"MEAN_MOTION_DDOT":0},{"OBJECT_NAME":"HULIANWANG DIGUI-20","OBJECT_ID":"2025-086A","EPOCH":"2026-03-05T03:30:12.722112","MEAN_MOTION":13.24420169,"ECCENTRICITY":0.0001727,"INCLINATION":86.5126,"RA_OF_ASC_NODE":348.1666,"ARG_OF_PERICENTER":91.876,"MEAN_ANOMALY":268.2571,"EPHEMERIS_TYPE":0,"CLASSIFICATION_TYPE":"U","NORAD_CAT_ID":63687,"ELEMENT_SET_NO":999,"REV_AT_EPOCH":4110,"BSTAR":9.7458e-5,"MEAN_MOTION_DOT":5.6e-7,"MEAN_MOTION_DDOT":0},{"OBJECT_NAME":"HULIANWANG DIGUI-21","OBJECT_ID":"2025-086B","EPOCH":"2026-03-05T03:41:00.054240","MEAN_MOTION":13.24421763,"ECCENTRICITY":0.0001615,"INCLINATION":86.5154,"RA_OF_ASC_NODE":348.1933,"ARG_OF_PERICENTER":94.756,"MEAN_ANOMALY":265.3759,"EPHEMERIS_TYPE":0,"CLASSIFICATION_TYPE":"U","NORAD_CAT_ID":63688,"ELEMENT_SET_NO":999,"REV_AT_EPOCH":4109,"BSTAR":8.402e-5,"MEAN_MOTION_DOT":5.1e-7,"MEAN_MOTION_DDOT":0},{"OBJECT_NAME":"HULIANWANG DIGUI-22","OBJECT_ID":"2025-086C","EPOCH":"2026-03-05T03:51:53.587296","MEAN_MOTION":13.24421491,"ECCENTRICITY":0.0001798,"INCLINATION":86.5119,"RA_OF_ASC_NODE":348.0939,"ARG_OF_PERICENTER":92.0475,"MEAN_ANOMALY":268.0865,"EPHEMERIS_TYPE":0,"CLASSIFICATION_TYPE":"U","NORAD_CAT_ID":63689,"ELEMENT_SET_NO":999,"REV_AT_EPOCH":4109,"BSTAR":0.00010808,"MEAN_MOTION_DOT":6.1e-7,"MEAN_MOTION_DDOT":0},{"OBJECT_NAME":"HULIANWANG DIGUI-23","OBJECT_ID":"2025-086D","EPOCH":"2026-03-05T04:13:34.601088","MEAN_MOTION":13.24422238,"ECCENTRICITY":0.0001744,"INCLINATION":86.516,"RA_OF_ASC_NODE":348.2253,"ARG_OF_PERICENTER":88.3079,"MEAN_ANOMALY":271.8254,"EPHEMERIS_TYPE":0,"CLASSIFICATION_TYPE":"U","NORAD_CAT_ID":63690,"ELEMENT_SET_NO":999,"REV_AT_EPOCH":4109,"BSTAR":0.00014995,"MEAN_MOTION_DOT":7.9e-7,"MEAN_MOTION_DDOT":0},{"OBJECT_NAME":"HULIANWANG DIGUI-24","OBJECT_ID":"2025-086E","EPOCH":"2026-03-05T04:24:32.285664","MEAN_MOTION":13.24420361,"ECCENTRICITY":0.0001778,"INCLINATION":86.5167,"RA_OF_ASC_NODE":348.2494,"ARG_OF_PERICENTER":92.5633,"MEAN_ANOMALY":267.5704,"EPHEMERIS_TYPE":0,"CLASSIFICATION_TYPE":"U","NORAD_CAT_ID":63691,"ELEMENT_SET_NO":999,"REV_AT_EPOCH":4109,"BSTAR":0.00018509,"MEAN_MOTION_DOT":9.4e-7,"MEAN_MOTION_DDOT":0},{"OBJECT_NAME":"HULIANWANG DIGUI-25","OBJECT_ID":"2025-086F","EPOCH":"2026-03-05T02:46:35.743872","MEAN_MOTION":13.24421789,"ECCENTRICITY":0.0001676,"INCLINATION":86.5106,"RA_OF_ASC_NODE":348.0942,"ARG_OF_PERICENTER":91.3752,"MEAN_ANOMALY":268.7574,"EPHEMERIS_TYPE":0,"CLASSIFICATION_TYPE":"U","NORAD_CAT_ID":63692,"ELEMENT_SET_NO":999,"REV_AT_EPOCH":4108,"BSTAR":0.00020003,"MEAN_MOTION_DOT":1.01e-6,"MEAN_MOTION_DDOT":0},{"OBJECT_NAME":"HULIANWANG DIGUI-26","OBJECT_ID":"2025-086G","EPOCH":"2026-03-05T04:02:35.527200","MEAN_MOTION":13.24421253,"ECCENTRICITY":0.0001746,"INCLINATION":86.5154,"RA_OF_ASC_NODE":348.2028,"ARG_OF_PERICENTER":96.7041,"MEAN_ANOMALY":263.4291,"EPHEMERIS_TYPE":0,"CLASSIFICATION_TYPE":"U","NORAD_CAT_ID":63693,"ELEMENT_SET_NO":999,"REV_AT_EPOCH":4109,"BSTAR":0.00011912,"MEAN_MOTION_DOT":6.6e-7,"MEAN_MOTION_DDOT":0},{"OBJECT_NAME":"HULIANWANG DIGUI-27","OBJECT_ID":"2025-086H","EPOCH":"2026-03-05T02:57:35.255808","MEAN_MOTION":13.2442019,"ECCENTRICITY":0.0001781,"INCLINATION":86.5115,"RA_OF_ASC_NODE":348.1261,"ARG_OF_PERICENTER":91.6666,"MEAN_ANOMALY":268.4672,"EPHEMERIS_TYPE":0,"CLASSIFICATION_TYPE":"U","NORAD_CAT_ID":63694,"ELEMENT_SET_NO":999,"REV_AT_EPOCH":4108,"BSTAR":0.00019509,"MEAN_MOTION_DOT":9.8e-7,"MEAN_MOTION_DDOT":0},{"OBJECT_NAME":"HULIANWANG DIGUI-28","OBJECT_ID":"2025-086J","EPOCH":"2026-03-05T03:19:14.051712","MEAN_MOTION":13.24421494,"ECCENTRICITY":0.0001778,"INCLINATION":86.508,"RA_OF_ASC_NODE":348.0256,"ARG_OF_PERICENTER":91.5021,"MEAN_ANOMALY":268.6316,"EPHEMERIS_TYPE":0,"CLASSIFICATION_TYPE":"U","NORAD_CAT_ID":63695,"ELEMENT_SET_NO":999,"REV_AT_EPOCH":4108,"BSTAR":0.00012509,"MEAN_MOTION_DOT":6.8e-7,"MEAN_MOTION_DDOT":0},{"OBJECT_NAME":"HULIANWANG DIGUI-29","OBJECT_ID":"2025-086K","EPOCH":"2026-03-05T03:08:28.096800","MEAN_MOTION":13.24420313,"ECCENTRICITY":0.0001658,"INCLINATION":86.5108,"RA_OF_ASC_NODE":348.1082,"ARG_OF_PERICENTER":92.0975,"MEAN_ANOMALY":268.0349,"EPHEMERIS_TYPE":0,"CLASSIFICATION_TYPE":"U","NORAD_CAT_ID":63696,"ELEMENT_SET_NO":999,"REV_AT_EPOCH":4108,"BSTAR":0.00013792,"MEAN_MOTION_DOT":7.4e-7,"MEAN_MOTION_DDOT":0},{"OBJECT_NAME":"HULIANWANG DIGUI-30","OBJECT_ID":"2025-121A","EPOCH":"2026-03-05T03:19:04.846656","MEAN_MOTION":13.24423387,"ECCENTRICITY":0.0001992,"INCLINATION":86.4948,"RA_OF_ASC_NODE":48.661,"ARG_OF_PERICENTER":78.6648,"MEAN_ANOMALY":281.471,"EPHEMERIS_TYPE":0,"CLASSIFICATION_TYPE":"U","NORAD_CAT_ID":64283,"ELEMENT_SET_NO":999,"REV_AT_EPOCH":3638,"BSTAR":8.4402e-5,"MEAN_MOTION_DOT":5.1e-7,"MEAN_MOTION_DDOT":0},{"OBJECT_NAME":"HULIANWANG DIGUI-31","OBJECT_ID":"2025-121B","EPOCH":"2026-03-05T03:08:31.293600","MEAN_MOTION":13.24419594,"ECCENTRICITY":0.0002015,"INCLINATION":86.4968,"RA_OF_ASC_NODE":48.714,"ARG_OF_PERICENTER":78.8564,"MEAN_ANOMALY":281.2796,"EPHEMERIS_TYPE":0,"CLASSIFICATION_TYPE":"U","NORAD_CAT_ID":64284,"ELEMENT_SET_NO":999,"REV_AT_EPOCH":3638,"BSTAR":9.8452e-5,"MEAN_MOTION_DOT":5.7e-7,"MEAN_MOTION_DDOT":0},{"OBJECT_NAME":"HULIANWANG DIGUI-32","OBJECT_ID":"2025-121C","EPOCH":"2026-03-05T04:45:55.172736","MEAN_MOTION":13.24425178,"ECCENTRICITY":0.0002008,"INCLINATION":86.4909,"RA_OF_ASC_NODE":48.5207,"ARG_OF_PERICENTER":80.9369,"MEAN_ANOMALY":279.1992,"EPHEMERIS_TYPE":0,"CLASSIFICATION_TYPE":"U","NORAD_CAT_ID":64285,"ELEMENT_SET_NO":999,"REV_AT_EPOCH":3639,"BSTAR":4.3701e-5,"MEAN_MOTION_DOT":3.3e-7,"MEAN_MOTION_DDOT":0}]
