HULIANWANG DIGUI-17     
1 62977U 25030G   26064.06166944 -.00000092  00000+0  69811-4 0  9995
2 62977  50.0047 249.0252 0000754 156.9999 203.0907 13.29338208 52015
HULIANWANG DIGUI-18     
1 62978U 25030H   26064.12847499 -.00000093  00000+0  67333-4 0  9992
2 62978  50.0051 248.7221 0000781 158.7450 201.3455 13.29338238 52028
HULIANWANG DIGUI-19     
1 62979U 25030J   26064.16168615 -.00000086  00000+0  82460-4 0  9993
2 62979  50.0036 248.8510 0000811 153.4590 206.6323 13.29341421 52025
HULIANWANG DIGUI-20     
1 63687U 25086A   26064.14598058  .00000056  00000+0  97458-4 0  9996
2 63687  86.5126 348.1666 0001727  91.8760 268.2571 13.24420169 41101
HULIANWANG DIGUI-21     
1 63688U 25086B   26064.15347285  .00000051  00000+0  84020-4 0  9998
2 63688  86.5154 348.1933 0001615  94.7560 265.3759 13.24421763 41091
HULIANWANG DIGUI-22     
1 63689U 25086C   26064.16103689  .00000061  00000+0  10808-3 0  9991
2 63689  86.5119 348.0939 0001798  92.0475 268.0865 13.24421491 41092
HULIANWANG DIGUI-23     
1 63690U 25086D   26064.17609492  .00000079  00000+0  14995-3 0  9997
2 63690  86.5160 348.2253 0001744  88.3079 271.8254 13.24422238 41094
HULIANWANG DIGUI-24     
1 63691U 25086E   26064.18370701  .00000094  00000+0  18509-3 0  9999
2 63691  86.5167 348.2494 0001778  92.5633 267.5704 13.24420361 41096
HULIANWANG DIGUI-25     
1 63692U 25086F   26064.11569148  .00000101  00000+0  20003-3 0  9999
2 63692  86.5106 348.0942 0001676  91.3752 268.7574 13.24421789 41084
HULIANWANG DIGUI-26     
1 63693U 25086G   26064.16846675  .00000066  00000+0  11912-3 0  9997
2 63693  86.5154 348.2028 0001746  96.7041 263.4291 13.24421253 41098
HULIANWANG DIGUI-27     
1 63694U 25086H   26064.12332472  .00000098  00000+0  19509-3 0  9994
2 63694  86.5115 348.1261 0001781  91.6666 268.4672 13.24420190 41086
HULIANWANG DIGUI-28     
1 63695U 25086J   26064.13835708  .00000068  00000+0  12509-3 0  9996
2 63695  86.5080 348.0256 0001778  91.5021 268.6316 13.24421494 41086
HULIANWANG DIGUI-29     
1 63696U 25086K   26064.13088075  .00000074  00000+0  13792-3 0  9996
2 63696  86.5108 348.1082 0001658  92.0975 268.0349 13.24420313 41086
HULIANWANG DIGUI-30     
1 64283U 25121A   26064.13825054  .00000051  00000+0  84402-4 0  9997
2 64283  86.4948  48.6610 0001992  78.6648 281.4710 13.24423387 36389
HULIANWANG DIGUI-31     
1 64284U 25121B   26064.13091775  .00000057  00000+0  98452-4 0  9999
2 64284  86.4968  48.7140 0002015  78.8564 281.2796 13.24419594 36384
HULIANWANG DIGUI-32     
1 64285U 25121C   26064.19855524  .00000033  00000+0  43701-4 0  9997
2 64285  86.4909  48.5207 0002008  80.9369 279.1992 13.24425178 36391
